{
  "type": "FeatureCollection",
  "features": [
    {
      "type": "Feature",
      "properties": {
        "norad_id": 33376,
        "name": "GALAXY 19 (G-19)",
        "group": "intelsat",
        "lat": -0.01186917927051424,
        "lon": 153.1310432378654,
        "alt_km": 35790.92422983331,
        "timestamp": "2025-12-18T10:51:25.457347+00:00",
        "meta_object_name": "GALAXY 19 (G-19)",
        "meta_object_id": "2008-045A",
        "meta_epoch": "2025-12-17T16:17:05.545824",
        "meta_mean_motion": 1.00271089,
        "meta_eccentricity": 0.00025028,
        "meta_inclination": 0.0217,
        "meta_ra_of_asc_node": 283.1197,
        "meta_arg_of_pericenter": 345.9066,
        "meta_mean_anomaly": 324.7986,
        "meta_ephemeris_type": 0,
        "meta_classification_type": "U",
        "meta_norad_cat_id": 33376,
        "meta_element_set_no": 999,
        "meta_rev_at_epoch": 6308,
        "meta_bstar": 0,
        "meta_mean_motion_dot": -1.14e-06,
        "meta_mean_motion_ddot": 0,
        "tle_line1": "1 33376U 08045A   25351.67853641 -.00000114  00000+0  00000+0 0  9990",
        "tle_line2": "2 33376   0.0217 283.1197 0002502 345.9066 324.7986  1.00271089 63081"
      },
      "geometry": {
        "type": "Point",
        "coordinates": [
          153.1310432378654,
          -0.01186917927051424
        ]
      }
    },
    {
      "type": "Feature",
      "properties": {
        "norad_id": 35493,
        "name": "FM-5",
        "group": "intelsat",
        "lat": -0.015379850261799274,
        "lon": 164.01441724230847,
        "alt_km": 35783.19168234267,
        "timestamp": "2025-12-18T10:51:25.457359+00:00",
        "meta_object_name": "FM-5",
        "meta_object_id": "2009-034A",
        "meta_epoch": "2025-12-17T14:37:45.057792",
        "meta_mean_motion": 1.00270553,
        "meta_eccentricity": 8.174e-05,
        "meta_inclination": 0.0189,
        "meta_ra_of_asc_node": 293.208,
        "meta_arg_of_pericenter": 214.6235,
        "meta_mean_anomaly": 71.9468,
        "meta_ephemeris_type": 0,
        "meta_classification_type": "U",
        "meta_norad_cat_id": 35493,
        "meta_element_set_no": 999,
        "meta_rev_at_epoch": 4482,
        "meta_bstar": 0,
        "meta_mean_motion_dot": -1.75e-06,
        "meta_mean_motion_ddot": 0,
        "tle_line1": "1 35493U 09034A   25351.60954928 -.00000175  00000+0  00000+0 0  9991",
        "tle_line2": "2 35493   0.0189 293.2080 0000817 214.6235  71.9468  1.00270553 44823"
      },
      "geometry": {
        "type": "Point",
        "coordinates": [
          164.01441724230847,
          -0.015379850261799274
        ]
      }
    },
    {
      "type": "Feature",
      "properties": {
        "norad_id": 36097,
        "name": "INTELSAT 14 (IS-14)",
        "group": "intelsat",
        "lat": -0.028319188727382025,
        "lon": -154.85509617248502,
        "alt_km": 35782.78416903525,
        "timestamp": "2025-12-18T10:51:25.457371+00:00",
        "meta_object_name": "INTELSAT 14 (IS-14)",
        "meta_object_id": "2009-064A",
        "meta_epoch": "2025-12-17T18:14:54.264192",
        "meta_mean_motion": 1.00272026,
        "meta_eccentricity": 0.00024403,
        "meta_inclination": 0.0118,
        "meta_ra_of_asc_node": 322.9055,
        "meta_arg_of_pericenter": 313.7098,
        "meta_mean_anomaly": 38.7555,
        "meta_ephemeris_type": 0,
        "meta_classification_type": "U",
        "meta_norad_cat_id": 36097,
        "meta_element_set_no": 999,
        "meta_rev_at_epoch": 5878,
        "meta_bstar": 0,
        "meta_mean_motion_dot": -2.48e-06,
        "meta_mean_motion_ddot": 0,
        "tle_line1": "1 36097U 09064A   25351.76035028 -.00000248  00000+0  00000+0 0  9994",
        "tle_line2": "2 36097   0.0118 322.9055 0002440 313.7098  38.7555  1.00272026 58785"
      },
      "geometry": {
        "type": "Point",
        "coordinates": [
          -154.85509617248502,
          -0.028319188727382025
        ]
      }
    },
    {
      "type": "Feature",
      "properties": {
        "norad_id": 36106,
        "name": "INTELSAT 15 (IS-15)",
        "group": "intelsat",
        "lat": -0.007256790769276739,
        "lon": -24.66543936217138,
        "alt_km": 35781.2086566408,
        "timestamp": "2025-12-18T10:51:25.457383+00:00",
        "meta_object_name": "INTELSAT 15 (IS-15)",
        "meta_object_id": "2009-067A",
        "meta_epoch": "2025-12-17T20:34:46.380864",
        "meta_mean_motion": 1.00271572,
        "meta_eccentricity": 0.00021607,
        "meta_inclination": 0.0176,
        "meta_ra_of_asc_node": 344.0278,
        "meta_arg_of_pericenter": 294.3394,
        "meta_mean_anomaly": 202.2096,
        "meta_ephemeris_type": 0,
        "meta_classification_type": "U",
        "meta_norad_cat_id": 36106,
        "meta_element_set_no": 999,
        "meta_rev_at_epoch": 3941,
        "meta_bstar": 0,
        "meta_mean_motion_dot": -1.6e-06,
        "meta_mean_motion_ddot": 0,
        "tle_line1": "1 36106U 09067A   25351.85748126 -.00000160  00000+0  00000+0 0  9991",
        "tle_line2": "2 36106   0.0176 344.0278 0002160 294.3394 202.2096  1.00271572 39416"
      },
      "geometry": {
        "type": "Point",
        "coordinates": [
          -24.66543936217138,
          -0.007256790769276739
        ]
      }
    },
    {
      "type": "Feature",
      "properties": {
        "norad_id": 36131,
        "name": "DIRECTV 12",
        "group": "intelsat",
        "lat": 0.019886475536186138,
        "lon": 147.444960190489,
        "alt_km": 35787.65338754474,
        "timestamp": "2025-12-18T10:51:25.457395+00:00",
        "meta_object_name": "DIRECTV 12",
        "meta_object_id": "2009-075A",
        "meta_epoch": "2025-12-17T21:23:49.183872",
        "meta_mean_motion": 1.00270615,
        "meta_eccentricity": 3.654e-05,
        "meta_inclination": 0.0486,
        "meta_ra_of_asc_node": 153.7666,
        "meta_arg_of_pericenter": 209.5848,
        "meta_mean_anomaly": 301.6511,
        "meta_ephemeris_type": 0,
        "meta_classification_type": "U",
        "meta_norad_cat_id": 36131,
        "meta_element_set_no": 999,
        "meta_rev_at_epoch": 4473,
        "meta_bstar": 0,
        "meta_mean_motion_dot": -7.8e-07,
        "meta_mean_motion_ddot": 0,
        "tle_line1": "1 36131U 09075A   25351.89154148 -.00000078  00000+0  00000+0 0  9995",
        "tle_line2": "2 36131   0.0486 153.7666 0000365 209.5848 301.6511  1.00270615 44735"
      },
      "geometry": {
        "type": "Point",
        "coordinates": [
          147.444960190489,
          0.019886475536186138
        ]
      }
    },
    {
      "type": "Feature",
      "properties": {
        "norad_id": 36397,
        "name": "INTELSAT 16 (IS-16)",
        "group": "intelsat",
        "lat": -0.0011994530604666708,
        "lon": 173.94449719704693,
        "alt_km": 35786.29232746121,
        "timestamp": "2025-12-18T10:51:25.457408+00:00",
        "meta_object_name": "INTELSAT 16 (IS-16)",
        "meta_object_id": "2010-006A",
        "meta_epoch": "2025-12-17T12:57:47.130048",
        "meta_mean_motion": 1.00272497,
        "meta_eccentricity": 0.00018317,
        "meta_inclination": 0.0098,
        "meta_ra_of_asc_node": 356.6253,
        "meta_arg_of_pericenter": 269.7654,
        "meta_mean_anomaly": 298.2757,
        "meta_ephemeris_type": 0,
        "meta_classification_type": "U",
        "meta_norad_cat_id": 36397,
        "meta_element_set_no": 999,
        "meta_rev_at_epoch": 5783,
        "meta_bstar": 0,
        "meta_mean_motion_dot": -2.2e-06,
        "meta_mean_motion_ddot": 0,
        "tle_line1": "1 36397U 10006A   25351.54012882 -.00000220  00000+0  00000+0 0  9994",
        "tle_line2": "2 36397   0.0098 356.6253 0001831 269.7654 298.2757  1.00272497 57834"
      },
      "geometry": {
        "type": "Point",
        "coordinates": [
          173.94449719704693,
          -0.0011994530604666708
        ]
      }
    },
    {
      "type": "Feature",
      "properties": {
        "norad_id": 37185,
        "name": "XM-5",
        "group": "intelsat",
        "lat": -0.027860313053640787,
        "lon": 134.95950652832232,
        "alt_km": 35778.75161264754,
        "timestamp": "2025-12-18T10:51:25.457420+00:00",
        "meta_object_name": "XM-5",
        "meta_object_id": "2010-053A",
        "meta_epoch": "2025-12-17T21:20:19.518720",
        "meta_mean_motion": 1.00270638,
        "meta_eccentricity": 0.00018313,
        "meta_inclination": 0.0628,
        "meta_ra_of_asc_node": 272.5834,
        "meta_arg_of_pericenter": 229.8801,
        "meta_mean_anomaly": 149.1827,
        "meta_ephemeris_type": 0,
        "meta_classification_type": "U",
        "meta_norad_cat_id": 37185,
        "meta_element_set_no": 999,
        "meta_rev_at_epoch": 5566,
        "meta_bstar": 0,
        "meta_mean_motion_dot": 2e-08,
        "meta_mean_motion_ddot": 0,
        "tle_line1": "1 37185U 10053A   25351.88911480  .00000002  00000+0  00000+0 0  9998",
        "tle_line2": "2 37185   0.0628 272.5834 0001831 229.8801 149.1827  1.00270638 55667"
      },
      "geometry": {
        "type": "Point",
        "coordinates": [
          134.95950652832232,
          -0.027860313053640787
        ]
      }
    }
  ]
}